[{"CCSDS_OMM_VERS":"3.0","COMMENT":"GENERATED VIA SPACE-TRACK.ORG API","CREATION_DATE":"2026-01-19T02:30:55","ORIGINATOR":"18 SPCS","OBJECT_NAME":"SOLRAD 1 (GREB)","OBJECT_ID":"1960-007B","CENTER_NAME":"EARTH","REF_FRAME":"TEME","TIME_SYSTEM":"UTC","MEAN_ELEMENT_THEORY":"SGP4","EPOCH":"2026-01-18T23:58:55.294176","MEAN_MOTION":"14.54573798","ECCENTRICITY":"0.01904209","INCLINATION":"66.6884","RA_OF_ASC_NODE":"274.8933","ARG_OF_PERICENTER":"43.8836","MEAN_ANOMALY":"317.7221","EPHEMERIS_TYPE":"0","CLASSIFICATION_TYPE":"U","NORAD_CAT_ID":"46","ELEMENT_SET_NO":"999","REV_AT_EPOCH":"43530","BSTAR":"0.00019376678000","MEAN_MOTION_DOT":"0.00000938","MEAN_MOTION_DDOT":"0.0000000000000","SEMIMAJOR_AXIS":"7088.886","PERIOD":"98.998","APOAPSIS":"845.738","PERIAPSIS":"575.764","OBJECT_TYPE":"PAYLOAD","RCS_SIZE":"MEDIUM","COUNTRY_CODE":"US","LAUNCH_DATE":"1960-06-22","SITE":"AFETR","DECAY_DATE":null,"FILE":"4972920","GP_ID":"309393713","TLE_LINE0":"0 SOLRAD 1 (GREB)","TLE_LINE1":"1 00046U 60007B   26018.99925109  .00000938  00000-0  19377-3 0  9994","TLE_LINE2":"2 00046  66.6884 274.8933 0190421  43.8836 317.7221 14.54573798435306"},{"CCSDS_OMM_VERS":"3.0","COMMENT":"GENERATED VIA SPACE-TRACK.ORG API","CREATION_DATE":"2026-01-19T02:30:55","ORIGINATOR":"18 SPCS","OBJECT_NAME":"THOR ABLESTAR R\/B","OBJECT_ID":"1960-007C","CENTER_NAME":"EARTH","REF_FRAME":"TEME","TIME_SYSTEM":"UTC","MEAN_ELEMENT_THEORY":"SGP4","EPOCH":"2026-01-18T21:45:31.068576","MEAN_MOTION":"14.45110457","ECCENTRICITY":"0.02259924","INCLINATION":"66.6646","RA_OF_ASC_NODE":"87.7583","ARG_OF_PERICENTER":"248.2882","MEAN_ANOMALY":"109.4029","EPHEMERIS_TYPE":"0","CLASSIFICATION_TYPE":"U","NORAD_CAT_ID":"47","ELEMENT_SET_NO":"999","REV_AT_EPOCH":"42923","BSTAR":"0.00016269295000","MEAN_MOTION_DOT":"0.00000665","MEAN_MOTION_DDOT":"0.0000000000000","SEMIMAJOR_AXIS":"7119.800","PERIOD":"99.646","APOAPSIS":"902.567","PERIAPSIS":"580.763","OBJECT_TYPE":"ROCKET BODY","RCS_SIZE":"LARGE","COUNTRY_CODE":"US","LAUNCH_DATE":"1960-06-22","SITE":"AFETR","DECAY_DATE":null,"FILE":"4972920","GP_ID":"309393213","TLE_LINE0":"0 THOR ABLESTAR R\/B","TLE_LINE1":"1 00047U 60007C   26018.90660959  .00000665  00000-0  16269-3 0  9999","TLE_LINE2":"2 00047  66.6646  87.7583 0225992 248.2882 109.4029 14.45110457429235"},{"CCSDS_OMM_VERS":"3.0","COMMENT":"GENERATED VIA SPACE-TRACK.ORG API","CREATION_DATE":"2026-01-19T02:30:55","ORIGINATOR":"18 SPCS","OBJECT_NAME":"DELTA 1 R\/B","OBJECT_ID":"1960-009B","CENTER_NAME":"EARTH","REF_FRAME":"TEME","TIME_SYSTEM":"UTC","MEAN_ELEMENT_THEORY":"SGP4","EPOCH":"2026-01-18T23:30:15.579936","MEAN_MOTION":"12.20161980","ECCENTRICITY":"0.01135919","INCLINATION":"47.2310","RA_OF_ASC_NODE":"264.8631","ARG_OF_PERICENTER":"290.4313","MEAN_ANOMALY":"68.4309","EPHEMERIS_TYPE":"0","CLASSIFICATION_TYPE":"U","NORAD_CAT_ID":"50","ELEMENT_SET_NO":"999","REV_AT_EPOCH":"91948","BSTAR":"0.00065533023000","MEAN_MOTION_DOT":"-0.00000015","MEAN_MOTION_DDOT":"0.0000000000000","SEMIMAJOR_AXIS":"7969.973","PERIOD":"118.017","APOAPSIS":"1682.370","PERIAPSIS":"1501.306","OBJECT_TYPE":"ROCKET BODY","RCS_SIZE":"MEDIUM","COUNTRY_CODE":"US","LAUNCH_DATE":"1960-08-12","SITE":"AFETR","DECAY_DATE":null,"FILE":"4972920","GP_ID":"309393714","TLE_LINE0":"0 DELTA 1 R\/B","TLE_LINE1":"1 00050U 60009B   26018.97934699 -.00000015  00000-0  65533-3 0  9995","TLE_LINE2":"2 00050  47.2310 264.8631 0113592 290.4313  68.4309 12.20161980919488"},{"CCSDS_OMM_VERS":"3.0","COMMENT":"GENERATED VIA SPACE-TRACK.ORG API","CREATION_DATE":"2026-01-19T02:30:55","ORIGINATOR":"18 SPCS","OBJECT_NAME":"ECHO 1 DEB (METAL OBJ)","OBJECT_ID":"1960-009C","CENTER_NAME":"EARTH","REF_FRAME":"TEME","TIME_SYSTEM":"UTC","MEAN_ELEMENT_THEORY":"SGP4","EPOCH":"2026-01-18T16:15:54.317664","MEAN_MOTION":"12.18380812","ECCENTRICITY":"0.01111286","INCLINATION":"47.2109","RA_OF_ASC_NODE":"151.9914","ARG_OF_PERICENTER":"112.6665","MEAN_ANOMALY":"248.5918","EPHEMERIS_TYPE":"0","CLASSIFICATION_TYPE":"U","NORAD_CAT_ID":"51","ELEMENT_SET_NO":"999","REV_AT_EPOCH":"91294","BSTAR":"0.00042876691000","MEAN_MOTION_DOT":"-0.00000041","MEAN_MOTION_DDOT":"0.0000000000000","SEMIMAJOR_AXIS":"7977.739","PERIOD":"118.190","APOAPSIS":"1688.259","PERIAPSIS":"1510.948","OBJECT_TYPE":"DEBRIS","RCS_SIZE":"MEDIUM","COUNTRY_CODE":"US","LAUNCH_DATE":"1960-08-12","SITE":"AFETR","DECAY_DATE":null,"FILE":"4972920","GP_ID":"309393214","TLE_LINE0":"0 ECHO 1 DEB (METAL OBJ)","TLE_LINE1":"1 00051U 60009C   26018.67771201 -.00000041  00000-0  42877-3 0  9996","TLE_LINE2":"2 00051  47.2109 151.9914 0111129 112.6665 248.5918 12.18380812912949"},{"CCSDS_OMM_VERS":"3.0","COMMENT":"GENERATED VIA SPACE-TRACK.ORG API","CREATION_DATE":"2026-01-19T02:30:55","ORIGINATOR":"18 SPCS","OBJECT_NAME":"ECHO 1 DEB (METAL OBJ)","OBJECT_ID":"1960-009E","CENTER_NAME":"EARTH","REF_FRAME":"TEME","TIME_SYSTEM":"UTC","MEAN_ELEMENT_THEORY":"SGP4","EPOCH":"2026-01-18T22:03:49.832928","MEAN_MOTION":"12.17398195","ECCENTRICITY":"0.00976893","INCLINATION":"47.2783","RA_OF_ASC_NODE":"82.7835","ARG_OF_PERICENTER":"353.9771","MEAN_ANOMALY":"5.9839","EPHEMERIS_TYPE":"0","CLASSIFICATION_TYPE":"U","NORAD_CAT_ID":"53","ELEMENT_SET_NO":"999","REV_AT_EPOCH":"91724","BSTAR":"-0.00054171301000","MEAN_MOTION_DOT":"-0.00000140","MEAN_MOTION_DDOT":"0.0000000000000","SEMIMAJOR_AXIS":"7982.031","PERIOD":"118.285","APOAPSIS":"1681.872","PERIAPSIS":"1525.920","OBJECT_TYPE":"DEBRIS","RCS_SIZE":"MEDIUM","COUNTRY_CODE":"US","LAUNCH_DATE":"1960-08-12","SITE":"AFETR","DECAY_DATE":null,"FILE":"4972920","GP_ID":"309393215","TLE_LINE0":"0 ECHO 1 DEB (METAL OBJ)","TLE_LINE1":"1 00053U 60009E   26018.91932677 -.00000140  00000-0 -54171-3 0  9992","TLE_LINE2":"2 00053  47.2783  82.7835 0097689 353.9771   5.9839 12.17398195917241"},{"CCSDS_OMM_VERS":"3.0","COMMENT":"GENERATED VIA SPACE-TRACK.ORG API","CREATION_DATE":"2026-01-19T02:30:55","ORIGINATOR":"18 SPCS","OBJECT_NAME":"COURIER 1B","OBJECT_ID":"1960-013A","CENTER_NAME":"EARTH","REF_FRAME":"TEME","TIME_SYSTEM":"UTC","MEAN_ELEMENT_THEORY":"SGP4","EPOCH":"2026-01-18T18:53:20.424480","MEAN_MOTION":"13.46423118","ECCENTRICITY":"0.01648641","INCLINATION":"28.3249","RA_OF_ASC_NODE":"177.8121","ARG_OF_PERICENTER":"50.6585","MEAN_ANOMALY":"310.8447","EPHEMERIS_TYPE":"0","CLASSIFICATION_TYPE":"U","NORAD_CAT_ID":"58","ELEMENT_SET_NO":"999","REV_AT_EPOCH":"21391","BSTAR":"-0.00000530908700","MEAN_MOTION_DOT":"0.00000079","MEAN_MOTION_DDOT":"0.0000000000000","SEMIMAJOR_AXIS":"7463.585","PERIOD":"106.950","APOAPSIS":"1208.497","PERIAPSIS":"962.402","OBJECT_TYPE":"PAYLOAD","RCS_SIZE":"LARGE","COUNTRY_CODE":"US","LAUNCH_DATE":"1960-10-04","SITE":"AFETR","DECAY_DATE":null,"FILE":"4972920","GP_ID":"309393716","TLE_LINE0":"0 COURIER 1B","TLE_LINE1":"1 00058U 60013A   26018.78704195  .00000079  00000-0 -53091-5 0  9991","TLE_LINE2":"2 00058  28.3249 177.8121 0164864  50.6585 310.8447 13.46423118213914"},{"CCSDS_OMM_VERS":"3.0","COMMENT":"GENERATED VIA SPACE-TRACK.ORG API","CREATION_DATE":"2026-01-19T02:30:55","ORIGINATOR":"18 SPCS","OBJECT_NAME":"THOR ABLESTAR R\/B","OBJECT_ID":"1960-013B","CENTER_NAME":"EARTH","REF_FRAME":"TEME","TIME_SYSTEM":"UTC","MEAN_ELEMENT_THEORY":"SGP4","EPOCH":"2026-01-18T19:47:50.555616","MEAN_MOTION":"13.53158166","ECCENTRICITY":"0.01887907","INCLINATION":"28.2461","RA_OF_ASC_NODE":"171.0051","ARG_OF_PERICENTER":"141.8337","MEAN_ANOMALY":"219.5741","EPHEMERIS_TYPE":"0","CLASSIFICATION_TYPE":"U","NORAD_CAT_ID":"59","ELEMENT_SET_NO":"999","REV_AT_EPOCH":"22292","BSTAR":"0.00003494480100","MEAN_MOTION_DOT":"0.00000115","MEAN_MOTION_DDOT":"0.0000000000000","SEMIMAJOR_AXIS":"7438.799","PERIOD":"106.418","APOAPSIS":"1201.101","PERIAPSIS":"920.226","OBJECT_TYPE":"ROCKET BODY","RCS_SIZE":"LARGE","COUNTRY_CODE":"US","LAUNCH_DATE":"1960-10-04","SITE":"AFETR","DECAY_DATE":null,"FILE":"4972920","GP_ID":"309393216","TLE_LINE0":"0 THOR ABLESTAR R\/B","TLE_LINE1":"1 00059U 60013B   26018.82489069  .00000115  00000-0  34945-4 0  9993","TLE_LINE2":"2 00059  28.2461 171.0051 0188791 141.8337 219.5741 13.53158166222920"},{"CCSDS_OMM_VERS":"3.0","COMMENT":"GENERATED VIA SPACE-TRACK.ORG API","CREATION_DATE":"2026-01-19T02:30:55","ORIGINATOR":"18 SPCS","OBJECT_NAME":"SCOUT X-1 R\/B","OBJECT_ID":"1961-004B","CENTER_NAME":"EARTH","REF_FRAME":"TEME","TIME_SYSTEM":"UTC","MEAN_ELEMENT_THEORY":"SGP4","EPOCH":"2026-01-18T19:59:04.036704","MEAN_MOTION":"12.27833266","ECCENTRICITY":"0.11678410","INCLINATION":"38.8581","RA_OF_ASC_NODE":"194.5349","ARG_OF_PERICENTER":"223.0873","MEAN_ANOMALY":"127.2398","EPHEMERIS_TYPE":"0","CLASSIFICATION_TYPE":"U","NORAD_CAT_ID":"82","ELEMENT_SET_NO":"999","REV_AT_EPOCH":"5844","BSTAR":"0.00016830482000","MEAN_MOTION_DOT":"0.00000179","MEAN_MOTION_DDOT":"0.0000000000000","SEMIMAJOR_AXIS":"7936.742","PERIOD":"117.280","APOAPSIS":"2485.492","PERIAPSIS":"631.721","OBJECT_TYPE":"ROCKET BODY","RCS_SIZE":"MEDIUM","COUNTRY_CODE":"US","LAUNCH_DATE":"1961-02-16","SITE":"WLPIS","DECAY_DATE":null,"FILE":"4972920","GP_ID":"309393717","TLE_LINE0":"0 SCOUT X-1 R\/B","TLE_LINE1":"1 00082U 61004B   26018.83268561  .00000179  00000-0  16830-3 0  9995","TLE_LINE2":"2 00082  38.8581 194.5349 1167841 223.0873 127.2398 12.27833266 58446"}]